OBJECT_NAME,OBJECT_ID,EPOCH,MEAN_MOTION,ECCENTRICITY,INCLINATION,RA_OF_ASC_NODE,ARG_OF_PERICENTER,MEAN_ANOMALY,EPHEMERIS_TYPE,CLASSIFICATION_TYPE,NORAD_CAT_ID,ELEMENT_SET_NO,REV_AT_EPOCH,BSTAR,MEAN_MOTION_DOT,MEAN_MOTION_DDOT
SWARM A,2013-067B,2026-07-02T06:02:53.611296,15.51239683,.00032373,87.3306,50.6424,97.0112,263.1517,0,U,39452,999,70858,.18959738E-3,.11138E-3,0
SWARM C,2013-067C,2026-07-02T06:02:44.973888,15.51238533,.00032187,87.3306,49.2233,97.0382,263.1245,0,U,39453,999,70854,.1892194E-3,.11115E-3,0
BRITE-CA1 (TORONTO),2014-033L,2026-07-02T06:10:30.989568,14.72702145,.00775882,97.9758,311.9090,227.9818,131.4768,0,U,40020,999,64443,.17505889E-3,.1116E-4,0
OCO 2,2014-035A,2026-07-02T06:18:19.702656,14.57123785,.00015011,98.2020,124.3264,82.5983,277.5386,0,U,40059,999,63824,.1148992E-3,.473E-5,0
BRITE-PL2 (HEWELIUSZ),2014-049B,2026-07-02T07:15:43.153056,14.94648804,.00150918,97.9111,295.4202,62.4732,297.8020,0,U,40119,999,64370,.17933618E-3,.1888E-4,0
MMS 1,2015-011A,2026-07-02T08:00:01.999872,0.28334150,.83166327,72.2893,348.6168,167.6484,43.9989,0,U,40482,999,139,0,-.947E-5,0
MMS 2,2015-011B,2026-07-02T08:00:01.999872,0.28334076,.83194425,72.2931,348.6158,167.6516,43.9887,0,U,40483,999,139,0,-.948E-5,0
MMS 3,2015-011C,2026-07-02T08:00:01.999872,0.28334121,.8317808,72.2929,348.6277,167.6590,43.9626,0,U,40484,999,139,0,-.947E-5,0
MMS 4,2015-011D,2026-07-02T08:00:01.999872,0.28334145,.8317721,72.2891,348.6110,167.6688,43.9564,0,U,40485,999,139,0,-.947E-5,0
ASTROSAT,2015-052A,2026-07-02T03:51:15.719040,14.82533398,.00085641,5.9977,47.5602,250.6263,109.2939,0,U,40930,999,58205,.13028684E-3,.1744E-4,0
DAMPE,2015-078A,2026-07-02T06:26:15.128160,15.30825435,.00129845,97.4554,188.8097,29.8675,330.3305,0,U,41173,999,58685,.61175429E-4,.1748E-4,0
PISAT,2016-059B,2026-07-02T06:22:25.248864,14.69010551,.00296303,97.8182,183.0706,154.6360,205.6309,0,U,41784,999,52195,.19777228E-3,.112E-4,0
HXMT (HUIYAN),2017-034A,2026-07-02T06:18:36.881568,15.18589396,.00326966,43.0145,99.0888,242.0636,117.6901,0,U,42758,999,49995,.25606297E-3,.5225E-4,0
FLYING LAPTOP,2017-042G,2026-07-02T07:35:32.075808,15.01242271,.00199654,97.4757,338.2726,73.5736,286.7681,0,U,42831,999,48872,.27973989E-3,.355E-4,0
ZHANGHENG 1-01 (CSES-1),2018-015C,2026-07-02T08:05:17.596608,15.21011559,.00177253,97.6882,349.2977,210.5255,149.4950,0,U,43194,999,46694,.41380804E-3,.9148E-4,0
SALSAT,2020-068K,2026-07-02T06:06:00.402912,15.30013367,.00080377,97.8847,187.2381,243.7769,116.2645,0,U,46495,999,31766,.2998701E-3,.8637E-4,0
IXPE,2021-121A,2026-07-02T08:00:01.999872,15.10387640,.00067277,0.2278,202.8608,308.2713,146.9370,0,U,49954,999,590,.63690346E-3,.11716E-3,0
SMILE,2026-109A,2026-06-07T09:11:54.544416,7.54049028,.3310191,69.9787,209.3069,288.5544,45.7342,0,U,69123,999,248,-.36778157E-3,-.41E-6,0
