SWARM A                 
1 39452U 13067B   26183.25200939  .00011138  00000+0  18960-3 0  9990
2 39452  87.3306  50.6424 0003237  97.0112 263.1517 15.51239683708584
SWARM C                 
1 39453U 13067C   26183.25190942  .00011115  00000+0  18922-3 0  9996
2 39453  87.3306  49.2233 0003218  97.0382 263.1245 15.51238533708542
BRITE-CA1 (TORONTO)     
1 40020U 14033L   26183.25730312  .00001116  00000+0  17506-3 0  9990
2 40020  97.9758 311.9090 0077588 227.9818 131.4768 14.72702145644432
OCO 2                   
1 40059U 14035A   26183.26272804  .00000473  00000+0  11490-3 0  9993
2 40059  98.2020 124.3264 0001501  82.5983 277.5386 14.57123785638249
BRITE-PL2 (HEWELIUSZ)   
1 40119U 14049B   26183.30258279  .00001888  00000+0  17934-3 0  9990
2 40119  97.9111 295.4202 0015091  62.4732 297.8020 14.94648804643705
MMS 1                   
1 40482U 15011A   26183.33335648 -.00000947  00000+0  00000+0 0  9990
2 40482  72.2893 348.6168 8316632 167.6484  43.9989  0.28334150  1393
MMS 2                   
1 40483U 15011B   26183.33335648 -.00000948  00000+0  00000+0 0  9992
2 40483  72.2931 348.6158 8319442 167.6516  43.9887  0.28334076  1398
MMS 3                   
1 40484U 15011C   26183.33335648 -.00000947  00000+0  00000+0 0  9992
2 40484  72.2929 348.6277 8317808 167.6590  43.9626  0.28334121  1396
MMS 4                   
1 40485U 15011D   26183.33335648 -.00000947  00000+0  00000+0 0  9993
2 40485  72.2891 348.6110 8317721 167.6688  43.9564  0.28334145  1390
ASTROSAT                
1 40930U 15052A   26183.16059860  .00001744  00000+0  13029-3 0  9997
2 40930   5.9977  47.5602 0008564 250.6263 109.2939 14.82533398582055
DAMPE                   
1 41173U 15078A   26183.26823065  .00001748  00000+0  61175-4 0  9992
2 41173  97.4554 188.8097 0012984  29.8675 330.3305 15.30825435586859
PISAT                   
1 41784U 16059B   26183.26557001  .00001120  00000+0  19777-3 0  9998
2 41784  97.8182 183.0706 0029630 154.6360 205.6309 14.69010551521950
HXMT (HUIYAN)           
1 42758U 17034A   26183.26292687  .00005225  00000+0  25606-3 0  9998
2 42758  43.0145  99.0888 0032696 242.0636 117.6901 15.18589396499952
FLYING LAPTOP           
1 42831U 17042G   26183.31634347  .00003550  00000+0  27974-3 0  9997
2 42831  97.4757 338.2726 0019965  73.5736 286.7681 15.01242271488723
ZHANGHENG 1-01 (CSES-1) 
1 43194U 18015C   26183.33700922  .00009148  00000+0  41381-3 0  9993
2 43194  97.6882 349.2977 0017725 210.5255 149.4950 15.21011559466947
SALSAT                  
1 46495U 20068K   26183.25417133  .00008637  00000+0  29987-3 0  9991
2 46495  97.8847 187.2381 0008037 243.7769 116.2645 15.30013367317666
IXPE                    
1 49954U 21121A   26183.33335648  .00011716  00000+0  63690-3 0  9995
2 49954   0.2278 202.8608 0006727 308.2713 146.9370 15.10387640  5903
SMILE                   
1 69123U 26109A   26158.38327019 -.00000041  00000+0 -36778-3 0  9994
2 69123  69.9787 209.3069 3310191 288.5544  45.7342  7.54049028  2480
